NORAD_CAT_ID,OBJECT_NAME,OBJECT_TYPE,EPOCH,MEAN_MOTION,ECCENTRICITY,INCLINATION,RA_OF_ASC_NODE,ARG_OF_PERICENTER,MEAN_ANOMALY,BSTAR,MEAN_MOTION_DOT,MEAN_MOTION_DDOT,TLE_LINE0,TLE_LINE1,TLE_LINE2,SEMIMAJOR_AXIS,PERIOD,APOGEE,PERIGEE,DECAYED
53138.0,STARLINK-4141,PAYLOAD,2024-05-05 19:16:18,15.08838454,0.0001345,53.2177,310.0119,100.4553,259.659,0.00021826,3.187e-05,0.0,0 STARLINK-4141,1 53138U 22083G   24126.80298699  .00003187  00000-0  21826-3 0  9992,2 53138  53.2177 310.0119 0001345 100.4553 259.6590 15.08838454100477,6917.885,95.438,540.681,538.82,0.0
53138.0,STARLINK-4141,PAYLOAD,2024-05-06 04:48:36,15.08851888,0.0001389,53.218,308.2274,99.4837,260.6312,0.0003045,4.563e-05,0.0,0 STARLINK-4141,1 53138U 22083G   24127.20042021  .00004563  00000-0  30450-3 0  9995,2 53138  53.2180 308.2274 0001389  99.4837 260.6312 15.08851888100539,6917.844,95.437,540.67,538.748,0.0
53138.0,STARLINK-4141,PAYLOAD,2024-05-06 19:07:04,15.08840035,0.0001434,53.2194,305.5519,104.1974,255.9177,-1.074e-05,-4.59e-06,0.0,0 STARLINK-4141,1 53138U 22083G   24127.79658492 -.00000459  00000-0 -10740-4 0  9997,2 53138  53.2194 305.5519 0001434 104.1974 255.9177 15.08840035100474,6917.88,95.438,540.737,538.753,0.0
53138.0,STARLINK-4141,PAYLOAD,2024-05-07 04:39:22,15.08853819,0.0001376,53.2202,303.7645,85.87,274.245,0.00013371,1.841e-05,0.0,0 STARLINK-4141,1 53138U 22083G   24128.19401605  .00001841  00000-0  13371-3 0  9990,2 53138  53.2202 303.7645 0001376  85.8700 274.2450 15.08853819100530,6917.838,95.437,540.655,538.751,0.0
53138.0,STARLINK-4141,PAYLOAD,2024-05-07 11:00:56,15.0884079,0.0002196,53.2177,302.576,84.6742,275.4501,0.00014258,1.982e-05,0.0,0 STARLINK-4141,1 53138U 22083G   24128.45898555  .00001982  00000-0  14258-3 0  9994,2 53138  53.2177 302.5760 0002196  84.6742 275.4501 15.08840790100578,6917.878,95.438,541.262,538.224,0.0
53138.0,STARLINK-4141,PAYLOAD,2024-05-07 18:57:52,15.08831802,0.0001371,53.2177,301.0882,83.7765,276.3384,-1.6599e-05,-5.52e-06,0.0,0 STARLINK-4141,1 53138U 22083G   24128.79019034 -.00000552  00000-0 -16599-4 0  9993,2 53138  53.2177 301.0882 0001371  83.7765 276.3384 15.08831802100625,6917.905,95.438,540.719,538.822,0.0
53138.0,STARLINK-4141,PAYLOAD,2024-05-08 10:51:43,15.08838286,0.0001416,53.2178,298.1145,84.3271,275.7882,0.00023336,3.428e-05,0.0,0 STARLINK-4141,1 53138U 22083G   24129.45259093  .00003428  00000-0  23336-3 0  9997,2 53138  53.2178 298.1145 0001416  84.3271 275.7882 15.08838286100879,6917.886,95.438,540.73,538.771,0.0
53138.0,STARLINK-4141,PAYLOAD,2024-05-08 18:48:39,15.08843081,0.0001271,53.2165,296.6278,83.2488,276.8648,0.00051569,7.929e-05,0.0,0 STARLINK-4141,1 53138U 22083G   24129.78379100  .00007929  00000-0  51569-3 0  9994,2 53138  53.2165 296.6278 0001271  83.2488 276.8648 15.08843081100772,6917.871,95.437,540.615,538.857,0.0
53138.0,STARLINK-4141,PAYLOAD,2024-05-09 04:20:58,15.08857999,0.0001348,53.217,294.8434,80.8533,279.2612,0.00080102,0.00012489,0.0,0 STARLINK-4141,1 53138U 22083G   24130.18122711  .00012489  00000-0  80102-3 0  9996,2 53138  53.2170 294.8434 0001348  80.8533 279.2612 15.08857999100839,6917.825,95.436,540.623,538.758,0.0
53138.0,STARLINK-4141,PAYLOAD,2024-05-09 17:04:03,15.08845309,0.0001153,53.2159,292.463,88.6785,271.434,0.00032374,4.869e-05,0.0,0 STARLINK-4141,1 53138U 22083G   24130.71114936  .00004869  00000-0  32374-3 0  9996,2 53138  53.2159 292.4630 0001153  88.6785 271.4340 15.08845309100910,6917.864,95.437,540.527,538.932,0.0
53138.0,STARLINK-4141,PAYLOAD,2024-05-10 13:44:04,15.08841643,0.0001173,53.2167,288.5987,89.8692,270.2434,0.0005904,9.121e-05,0.0,0 STARLINK-4141,1 53138U 22083G   24131.57226923  .00009121  00000-0  59040-3 0  9996,2 53138  53.2167 288.5987 0001173  89.8692 270.2434 15.08841643101191,6917.875,95.437,540.552,538.929,0.0
53138.0,STARLINK-4141,PAYLOAD,2024-05-10 15:19:27,15.08846408,0.0001224,53.217,288.3013,88.3724,271.7409,0.00088036,0.00013753,0.0,0 STARLINK-4141,1 53138U 22083G   24131.63850928  .00013753  00000-0  88036-3 0  9994,2 53138  53.2170 288.3013 0001224  88.3724 271.7409 15.08846408101057,6917.861,95.437,540.573,538.879,0.0
53138.0,STARLINK-4141,PAYLOAD,2024-05-11 10:24:02,15.08959006,0.0001177,53.2185,284.7325,97.3376,262.775,0.0054771,0.0008826,0.0,0 STARLINK-4141,1 53138U 22083G   24132.43336323  .00088260  00000-0  54771-2 0  9994,2 53138  53.2185 284.7325 0001177  97.3376 262.7750 15.08959006101170,6917.517,95.43,540.196,538.567,0.0
53138.0,STARLINK-4141,PAYLOAD,2024-05-11 19:56:23,15.0877291,0.0002097,53.2173,282.9487,99.3789,260.7441,-0.0043026,-0.00067996,0.0,0 STARLINK-4141,1 53138U 22083G   24132.83082451 -.00067996  00000-0 -43026-2 0  9994,2 53138  53.2173 282.9487 0002097  99.3789 260.7441 15.08772910101237,6918.085,95.442,541.401,538.5,0.0
53138.0,STARLINK-4141,PAYLOAD,2024-05-11 21:31:46,15.08760966,0.0001545,53.2178,282.6511,92.5754,267.5415,-0.0038112,-0.00060305,0.0,0 STARLINK-4141,1 53138U 22083G   24132.89706922 -.00060305  00000-0 -38112-2 0  9993,2 53138  53.2178 282.6511 0001545  92.5754 267.5415 15.08760966101392,6918.122,95.443,541.056,538.918,0.0
53138.0,STARLINK-4141,PAYLOAD,2024-05-12 13:25:42,15.08804221,0.0002059,53.2176,279.6792,122.0728,238.0465,0.0017657,0.00027898,0.0,0 STARLINK-4141,1 53138U 22083G   24133.55951501  .00027898  00000-0  17657-2 0  9991,2 53138  53.2176 279.6792 0002059 122.0728 238.0465 15.08804221101344,6917.99,95.44,541.279,538.43,0.0
53138.0,STARLINK-4141,PAYLOAD,2024-05-12 16:36:28,15.08809886,0.0001395,53.2175,279.0842,94.9077,265.2075,0.0019117,0.00030243,0.0,0 STARLINK-4141,1 53138U 22083G   24133.69199939  .00030243  00000-0  19117-2 0  9996,2 53138  53.2175 279.0842 0001395  94.9077 265.2075 15.08809886101519,6917.972,95.439,540.802,538.872,0.0
53138.0,STARLINK-4141,PAYLOAD,2024-05-13 02:08:48,15.08824288,0.0001365,53.2174,277.2996,89.6867,270.4281,0.0013921,0.00021927,0.0,0 STARLINK-4141,1 53138U 22083G   24134.08944488  .00021927  00000-0  13921-2 0  9993,2 53138  53.2174 277.2996 0001365  89.6867 270.4281 15.08824288101423,6917.928,95.439,540.738,538.849,0.0
53138.0,STARLINK-4141,PAYLOAD,2024-05-13 10:05:43,15.08858305,0.0001164,53.2161,275.8089,78.0524,282.0598,0.0021322,0.00033826,0.0,0 STARLINK-4141,1 53138U 22083G   24134.42064160  .00033826  00000-0  21322-2 0  9996,2 53138  53.2161 275.8089 0001164  78.0524 282.0598 15.08858305101477,6917.824,95.436,540.495,538.884,0.0
53138.0,STARLINK-4141,PAYLOAD,2024-05-13 16:27:15,15.08877961,0.0001143,53.2159,274.6207,78.4991,281.613,0.0019632,0.00031127,0.0,0 STARLINK-4141,1 53138U 22083G   24134.68559592  .00031127  00000-0  19632-2 0  9995,2 53138  53.2159 274.6207 0001143  78.4991 281.6130 15.08877961101669,6917.764,95.435,540.42,538.839,0.0
53138.0,STARLINK-4141,PAYLOAD,2024-05-14 08:21:05,15.0889244,0.0001017,53.2154,271.6511,77.3588,282.7518,0.0013117,0.00020679,0.0,0 STARLINK-4141,1 53138U 22083G   24135.34797837  .00020679  00000-0  13117-2 0  9997,2 53138  53.2154 271.6511 0001017  77.3588 282.7518 15.08892440101615,6917.72,95.434,540.289,538.882,0.0
53138.0,STARLINK-4141,PAYLOAD,2024-05-14 16:18:00,15.08896032,0.0001448,53.2164,270.1625,77.4062,282.7092,0.0010087,0.00015826,0.0,0 STARLINK-4141,1 53138U 22083G   24135.67916843  .00015826  00000-0  10087-2 0  9994,2 53138  53.2164 270.1625 0001448  77.4062 282.7092 15.08896032101665,6917.709,95.434,540.576,538.572,0.0
53138.0,STARLINK-4141,PAYLOAD,2024-05-15 12:57:59,15.08855971,0.0001537,53.2155,266.2959,92.6298,267.487,-0.00047312,-7.813e-05,0.0,0 STARLINK-4141,1 53138U 22083G   24136.54027438 -.00007813  00000-0 -47312-3 0  9995,2 53138  53.2155 266.2959 0001537  92.6298 267.4870 15.08855971101795,6917.832,95.437,540.76,538.633,0.0
53138.0,STARLINK-4141,PAYLOAD,2024-05-15 14:33:22,15.08856788,0.0001349,53.2166,265.9977,85.5577,274.5569,-0.00048159,-7.948e-05,0.0,0 STARLINK-4141,1 53138U 22083G   24136.60651340 -.00007948  00000-0 -48159-3 0  9996,2 53138  53.2166 265.9977 0001349  85.5577 274.5569 15.08856788101954,6917.829,95.436,540.627,538.761,0.0
53138.0,STARLINK-4141,PAYLOAD,2024-05-15 17:44:08,15.08869049,0.0001281,53.2157,265.4041,106.7427,253.3706,0.00033988,5.13e-05,0.0,0 STARLINK-4141,1 53138U 22083G   24136.73899093  .00005130  00000-0  33988-3 0  9992,2 53138  53.2157 265.4041 0001281 106.7427 253.3706 15.08869049101824,6917.792,95.436,540.543,538.77,0.0
53138.0,STARLINK-4141,PAYLOAD,2024-05-16 08:02:37,15.08832643,0.000143,53.2156,262.7281,79.6323,280.483,-0.00043574,-7.215e-05,0.0,0 STARLINK-4141,1 53138U 22083G   24137.33515167 -.00007215  00000-0 -43574-3 0  9996,2 53138  53.2156 262.7281 0001430  79.6323 280.4830 15.08832643101917,6917.903,95.438,540.757,538.779,0.0
53138.0,STARLINK-4141,PAYLOAD,2024-05-16 17:34:55,15.08853414,0.0001504,53.2153,260.9439,87.7869,272.3296,0.00064325,9.968e-05,0.0,0 STARLINK-4141,1 53138U 22083G   24137.73258909  .00009968  00000-0  64325-3 0  9990,2 53138  53.2153 260.9439 0001504  87.7869 272.3296 15.08853414101977,6917.839,95.437,540.745,538.664,0.0
53138.0,STARLINK-4141,PAYLOAD,2024-05-17 14:14:57,15.08809644,0.0001109,53.2178,257.0766,97.6618,262.45,-0.00056247,-9.221e-05,0.0,0 STARLINK-4141,1 53138U 22083G   24138.59372071 -.00009221  00000-0 -56247-3 0  9990,2 53138  53.2178 257.0766 0001109  97.6618 262.4500 15.08809644102253,6917.973,95.439,540.605,539.071,0.0
53138.0,STARLINK-4141,PAYLOAD,2024-05-18 01:22:39,15.08831809,0.0002474,53.2163,254.996,91.0399,269.0876,0.00078179,0.00012173,0.0,0 STARLINK-4141,1 53138U 22083G   24139.05740652  .00012173  00000-0  78179-3 0  9992,2 53138  53.2163 254.9960 0002474  91.0399 269.0876 15.08831809102177,6917.905,95.438,541.482,538.059,0.0
53138.0,STARLINK-4141,PAYLOAD,2024-05-18 12:30:21,15.08859731,0.0002276,53.2146,252.9121,107.5711,252.553,0.0014765,0.00023302,0.0,0 STARLINK-4141,1 53138U 22083G   24139.52108256  .00023302  00000-0  14765-2 0  9998,2 53138  53.2146 252.9121 0002276 107.5711 252.5530 15.08859731102242,6917.82,95.436,541.26,538.111,0.0
